[{"OBJECT_NAME":"STARLINK-32433","OBJECT_ID":"2024-202H","EPOCH":"2026-03-09T12:13:29.271648","MEAN_MOTION":15.27567455,"ECCENTRICITY":0.00017867,"INCLINATION":43.0024,"RA_OF_ASC_NODE":238.6988,"ARG_OF_PERICENTER":285.7681,"MEAN_ANOMALY":74.2974,"EPHEMERIS_TYPE":0,"CLASSIFICATION_TYPE":"U","NORAD_CAT_ID":61852,"ELEMENT_SET_NO":999,"REV_AT_EPOCH":7531,"BSTAR":1.1060254e-5,"MEAN_MOTION_DOT":4.2e-7,"MEAN_MOTION_DDOT":0},{"OBJECT_NAME":"LIZZIESAT-2 (LS-2)","OBJECT_ID":"2024-247G","EPOCH":"2026-03-09T11:47:37.199328","MEAN_MOTION":15.28222796,"ECCENTRICITY":0.00040927,"INCLINATION":44.9909,"RA_OF_ASC_NODE":117.0823,"ARG_OF_PERICENTER":327.5136,"MEAN_ANOMALY":32.5495,"EPHEMERIS_TYPE":0,"CLASSIFICATION_TYPE":"U","NORAD_CAT_ID":62383,"ELEMENT_SET_NO":999,"REV_AT_EPOCH":6771,"BSTAR":0.00034516624,"MEAN_MOTION_DOT":9.388e-5,"MEAN_MOTION_DDOT":0}]
